SL-14 R/B               
1 16496U 86006B   26065.02081603  .00000725  00000+0  74583-4 0  9999
2 16496  82.5233 263.1912 0075122 285.2217  74.0702 14.86808640148669
COSMOS 1743             
1 16719U 86034A   26065.30313161  .00039175  00000+0  51579-3 0  9996
2 16719  82.5295  77.3847 0001903 320.6210  39.4907 15.58271388179726
SL-14 R/B               
1 16792U 86046B   26065.10279496  .00000542  00000+0  59679-4 0  9996
2 16792  82.4782  83.5720 0021767 237.8940 122.0164 14.85585901125874
SL-14 R/B               
1 16882U 86055B   26065.23263465  .00000605  00000+0  66892-4 0  9994
2 16882  82.5207 129.9235 0018471 348.3324  69.9275 14.85639139118850
AJISAI (EGS)            
1 16908U 86061A   26065.27432102 -.00000080  00000+0  11902-3 0  9999
2 16908  50.0080 103.8504 0011257 278.2104 205.0322 12.44515627467570
COSMOS 1812             
1 17295U 87003A   26065.13056457  .12040831 -12829-5  14059-3 0  9991
2 17295  82.4628 199.5909 0011771 272.0058  87.9898 16.49575463143916
SL-14 R/B               
1 17567U 87024B   26065.07017512  .00000517  00000+0  56140-4 0  9991
2 17567  82.5250  96.1667 0016668 273.0237  86.9072 14.86127647 87593
COSMOS 1833             
1 17589U 87027A   26065.17921663 -.00000137  00000+0 -47430-4 0  9992
2 17589  70.9231 333.3964 0024439 219.4252 140.5091 14.13055635  9824
SL-16 R/B               
1 17590U 87027B   26065.02189145 -.00000138  00000+0 -44721-4 0  9990
2 17590  71.0014 284.2247 0003586 150.8635 209.2690 14.17165768 14825
SL-14 R/B               
1 17912U 87038B   26065.13065184  .00000517  00000+0  57062-4 0  9999
2 17912  82.5007 300.1608 0019379 171.9810 188.1720 14.85365319 78702
COSMOS 1844             
1 17973U 87041A   26065.28882985 -.00000112  00000+0 -33105-4 0  9997
2 17973  70.8997  41.3481 0029805  22.8881 337.3561 14.14552970  3103
SL-14 R/B               
1 18153U 87055B   26065.24292231  .00000805  00000+0  89802-4 0  9990
2 18153  82.5030 352.2788 0021437  28.8711 331.3686 14.85624752 69422
COSMOS 1867             
1 18187U 87060A   26065.08791590 -.00000009  00000+0  34237-4 0  9996
2 18187  65.0117 316.7920 0014448 278.4415  81.5032 14.31502415 19428
SL-14 R/B               
1 18749U 88001B   26065.30533816  .00000842  00000+0  94541-4 0  9994
2 18749  82.5146 198.5423 0016677 247.7768 112.1679 14.85523074 41525
COSMOS 1933             
1 18958U 88020A   26064.96676950  .00004746  00000+0  23239-3 0  9997
2 18958  82.5097 254.5962 0003531 196.2641 163.8480 15.17942041 49667
SL-3 R/B                
1 19046U 88032B   26065.24322384  .00006803  00000+0  31796-3 0  9993
2 19046  97.5190  48.5062 0024225 244.3864 115.4868 15.19859136 51584
SL-16 R/B               
1 19120U 88039B   26065.31624694 -.00000124  00000+0 -35907-4 0  9991
2 19120  71.0131  75.6814 0022569 339.2734  20.7473 14.19615649957903
