[{"OBJECT_NAME":"SL-14 R/B","OBJECT_ID":"1986-006B","EPOCH":"2026-03-06T00:29:58.504992","MEAN_MOTION":14.8680864,"ECCENTRICITY":0.00751226,"INCLINATION":82.5233,"RA_OF_ASC_NODE":263.1912,"ARG_OF_PERICENTER":285.2217,"MEAN_ANOMALY":74.0702,"EPHEMERIS_TYPE":0,"CLASSIFICATION_TYPE":"U","NORAD_CAT_ID":16496,"ELEMENT_SET_NO":999,"REV_AT_EPOCH":14866,"BSTAR":7.4582639e-5,"MEAN_MOTION_DOT":7.25e-6,"MEAN_MOTION_DDOT":0},{"OBJECT_NAME":"COSMOS 1743","OBJECT_ID":"1986-034A","EPOCH":"2026-03-06T07:16:30.571104","MEAN_MOTION":15.58271388,"ECCENTRICITY":0.00019037,"INCLINATION":82.5295,"RA_OF_ASC_NODE":77.3847,"ARG_OF_PERICENTER":320.621,"MEAN_ANOMALY":39.4907,"EPHEMERIS_TYPE":0,"CLASSIFICATION_TYPE":"U","NORAD_CAT_ID":16719,"ELEMENT_SET_NO":999,"REV_AT_EPOCH":17972,"BSTAR":0.00051578928,"MEAN_MOTION_DOT":0.00039175,"MEAN_MOTION_DDOT":0},{"OBJECT_NAME":"SL-14 R/B","OBJECT_ID":"1986-046B","EPOCH":"2026-03-06T02:28:01.484544","MEAN_MOTION":14.85585901,"ECCENTRICITY":0.00217674,"INCLINATION":82.4782,"RA_OF_ASC_NODE":83.572,"ARG_OF_PERICENTER":237.894,"MEAN_ANOMALY":122.0164,"EPHEMERIS_TYPE":0,"CLASSIFICATION_TYPE":"U","NORAD_CAT_ID":16792,"ELEMENT_SET_NO":999,"REV_AT_EPOCH":12587,"BSTAR":5.9679211e-5,"MEAN_MOTION_DOT":5.42e-6,"MEAN_MOTION_DDOT":0},{"OBJECT_NAME":"SL-14 R/B","OBJECT_ID":"1986-055B","EPOCH":"2026-03-06T05:34:59.633760","MEAN_MOTION":14.85639139,"ECCENTRICITY":0.00184715,"INCLINATION":82.5207,"RA_OF_ASC_NODE":129.9235,"ARG_OF_PERICENTER":348.3324,"MEAN_ANOMALY":69.9275,"EPHEMERIS_TYPE":0,"CLASSIFICATION_TYPE":"U","NORAD_CAT_ID":16882,"ELEMENT_SET_NO":999,"REV_AT_EPOCH":11885,"BSTAR":6.6892478e-5,"MEAN_MOTION_DOT":6.05e-6,"MEAN_MOTION_DDOT":0},{"OBJECT_NAME":"AJISAI (EGS)","OBJECT_ID":"1986-061A","EPOCH":"2026-03-06T06:35:01.336128","MEAN_MOTION":12.44515627,"ECCENTRICITY":0.00112572,"INCLINATION":50.008,"RA_OF_ASC_NODE":103.8504,"ARG_OF_PERICENTER":278.2104,"MEAN_ANOMALY":205.0322,"EPHEMERIS_TYPE":0,"CLASSIFICATION_TYPE":"U","NORAD_CAT_ID":16908,"ELEMENT_SET_NO":999,"REV_AT_EPOCH":46757,"BSTAR":0.00011902404,"MEAN_MOTION_DOT":-8.0e-7,"MEAN_MOTION_DDOT":0},{"OBJECT_NAME":"COSMOS 1812","OBJECT_ID":"1987-003A","EPOCH":"2026-03-06T03:08:00.778848","MEAN_MOTION":16.49575463,"ECCENTRICITY":0.0011771,"INCLINATION":82.4628,"RA_OF_ASC_NODE":199.5909,"ARG_OF_PERICENTER":272.0058,"MEAN_ANOMALY":87.9898,"EPHEMERIS_TYPE":0,"CLASSIFICATION_TYPE":"U","NORAD_CAT_ID":17295,"ELEMENT_SET_NO":999,"REV_AT_EPOCH":14391,"BSTAR":0.00014058925,"MEAN_MOTION_DOT":0.12040831,"MEAN_MOTION_DDOT":-1.282894e-6},{"OBJECT_NAME":"SL-14 R/B","OBJECT_ID":"1987-024B","EPOCH":"2026-03-06T01:41:03.130368","MEAN_MOTION":14.86127647,"ECCENTRICITY":0.00166686,"INCLINATION":82.525,"RA_OF_ASC_NODE":96.1667,"ARG_OF_PERICENTER":273.0237,"MEAN_ANOMALY":86.9072,"EPHEMERIS_TYPE":0,"CLASSIFICATION_TYPE":"U","NORAD_CAT_ID":17567,"ELEMENT_SET_NO":999,"REV_AT_EPOCH":8759,"BSTAR":5.6139939e-5,"MEAN_MOTION_DOT":5.17e-6,"MEAN_MOTION_DDOT":0},{"OBJECT_NAME":"COSMOS 1833","OBJECT_ID":"1987-027A","EPOCH":"2026-03-06T04:18:04.316832","MEAN_MOTION":14.13055635,"ECCENTRICITY":0.00244396,"INCLINATION":70.9231,"RA_OF_ASC_NODE":333.3964,"ARG_OF_PERICENTER":219.4252,"MEAN_ANOMALY":140.5091,"EPHEMERIS_TYPE":0,"CLASSIFICATION_TYPE":"U","NORAD_CAT_ID":17589,"ELEMENT_SET_NO":999,"REV_AT_EPOCH":982,"BSTAR":-4.7429982e-5,"MEAN_MOTION_DOT":-1.37e-6,"MEAN_MOTION_DDOT":0},{"OBJECT_NAME":"SL-16 R/B","OBJECT_ID":"1987-027B","EPOCH":"2026-03-06T00:31:31.421280","MEAN_MOTION":14.17165768,"ECCENTRICITY":0.00035861,"INCLINATION":71.0014,"RA_OF_ASC_NODE":284.2247,"ARG_OF_PERICENTER":150.8635,"MEAN_ANOMALY":209.269,"EPHEMERIS_TYPE":0,"CLASSIFICATION_TYPE":"U","NORAD_CAT_ID":17590,"ELEMENT_SET_NO":999,"REV_AT_EPOCH":1482,"BSTAR":-4.4720913e-5,"MEAN_MOTION_DOT":-1.38e-6,"MEAN_MOTION_DDOT":0},{"OBJECT_NAME":"SL-14 R/B","OBJECT_ID":"1987-038B","EPOCH":"2026-03-06T03:08:08.318976","MEAN_MOTION":14.85365319,"ECCENTRICITY":0.00193797,"INCLINATION":82.5007,"RA_OF_ASC_NODE":300.1608,"ARG_OF_PERICENTER":171.981,"MEAN_ANOMALY":188.172,"EPHEMERIS_TYPE":0,"CLASSIFICATION_TYPE":"U","NORAD_CAT_ID":17912,"ELEMENT_SET_NO":999,"REV_AT_EPOCH":7870,"BSTAR":5.7062255e-5,"MEAN_MOTION_DOT":5.17e-6,"MEAN_MOTION_DDOT":0},{"OBJECT_NAME":"COSMOS 1844","OBJECT_ID":"1987-041A","EPOCH":"2026-03-06T06:55:54.899040","MEAN_MOTION":14.1455297,"ECCENTRICITY":0.0029805,"INCLINATION":70.8997,"RA_OF_ASC_NODE":41.3481,"ARG_OF_PERICENTER":22.8881,"MEAN_ANOMALY":337.3561,"EPHEMERIS_TYPE":0,"CLASSIFICATION_TYPE":"U","NORAD_CAT_ID":17973,"ELEMENT_SET_NO":999,"REV_AT_EPOCH":310,"BSTAR":-3.3105498e-5,"MEAN_MOTION_DOT":-1.12e-6,"MEAN_MOTION_DDOT":0},{"OBJECT_NAME":"SL-14 R/B","OBJECT_ID":"1987-055B","EPOCH":"2026-03-06T05:49:48.487584","MEAN_MOTION":14.85624752,"ECCENTRICITY":0.00214372,"INCLINATION":82.503,"RA_OF_ASC_NODE":352.2788,"ARG_OF_PERICENTER":28.8711,"MEAN_ANOMALY":331.3686,"EPHEMERIS_TYPE":0,"CLASSIFICATION_TYPE":"U","NORAD_CAT_ID":18153,"ELEMENT_SET_NO":999,"REV_AT_EPOCH":6942,"BSTAR":8.9802252e-5,"MEAN_MOTION_DOT":8.05e-6,"MEAN_MOTION_DDOT":0},{"OBJECT_NAME":"COSMOS 1867","OBJECT_ID":"1987-060A","EPOCH":"2026-03-06T02:06:35.933760","MEAN_MOTION":14.31502415,"ECCENTRICITY":0.00144485,"INCLINATION":65.0117,"RA_OF_ASC_NODE":316.792,"ARG_OF_PERICENTER":278.4415,"MEAN_ANOMALY":81.5032,"EPHEMERIS_TYPE":0,"CLASSIFICATION_TYPE":"U","NORAD_CAT_ID":18187,"ELEMENT_SET_NO":999,"REV_AT_EPOCH":1942,"BSTAR":3.4236855e-5,"MEAN_MOTION_DOT":-9.0e-8,"MEAN_MOTION_DDOT":0},{"OBJECT_NAME":"SL-14 R/B","OBJECT_ID":"1988-001B","EPOCH":"2026-03-06T07:19:41.217024","MEAN_MOTION":14.85523074,"ECCENTRICITY":0.00166778,"INCLINATION":82.5146,"RA_OF_ASC_NODE":198.5423,"ARG_OF_PERICENTER":247.7768,"MEAN_ANOMALY":112.1679,"EPHEMERIS_TYPE":0,"CLASSIFICATION_TYPE":"U","NORAD_CAT_ID":18749,"ELEMENT_SET_NO":999,"REV_AT_EPOCH":4152,"BSTAR":9.45406e-5,"MEAN_MOTION_DOT":8.42e-6,"MEAN_MOTION_DDOT":0},{"OBJECT_NAME":"COSMOS 1933","OBJECT_ID":"1988-020A","EPOCH":"2026-03-05T23:12:08.884800","MEAN_MOTION":15.17942041,"ECCENTRICITY":0.00035312,"INCLINATION":82.5097,"RA_OF_ASC_NODE":254.5962,"ARG_OF_PERICENTER":196.2641,"MEAN_ANOMALY":163.848,"EPHEMERIS_TYPE":0,"CLASSIFICATION_TYPE":"U","NORAD_CAT_ID":18958,"ELEMENT_SET_NO":999,"REV_AT_EPOCH":4966,"BSTAR":0.00023238632,"MEAN_MOTION_DOT":4.746e-5,"MEAN_MOTION_DDOT":0},{"OBJECT_NAME":"SL-3 R/B","OBJECT_ID":"1988-032B","EPOCH":"2026-03-06T05:50:14.539776","MEAN_MOTION":15.19859136,"ECCENTRICITY":0.00242255,"INCLINATION":97.519,"RA_OF_ASC_NODE":48.5062,"ARG_OF_PERICENTER":244.3864,"MEAN_ANOMALY":115.4868,"EPHEMERIS_TYPE":0,"CLASSIFICATION_TYPE":"U","NORAD_CAT_ID":19046,"ELEMENT_SET_NO":999,"REV_AT_EPOCH":5158,"BSTAR":0.00031796266,"MEAN_MOTION_DOT":6.803e-5,"MEAN_MOTION_DDOT":0},{"OBJECT_NAME":"SL-16 R/B","OBJECT_ID":"1988-039B","EPOCH":"2026-03-06T07:35:23.735616","MEAN_MOTION":14.19615649,"ECCENTRICITY":0.00225692,"INCLINATION":71.0131,"RA_OF_ASC_NODE":75.6814,"ARG_OF_PERICENTER":339.2734,"MEAN_ANOMALY":20.7473,"EPHEMERIS_TYPE":0,"CLASSIFICATION_TYPE":"U","NORAD_CAT_ID":19120,"ELEMENT_SET_NO":999,"REV_AT_EPOCH":95790,"BSTAR":-3.5906862e-5,"MEAN_MOTION_DOT":-1.24e-6,"MEAN_MOTION_DDOT":0}]
